NORAD_CAT_ID,OBJECT_NAME,OBJECT_TYPE,EPOCH,MEAN_MOTION,ECCENTRICITY,INCLINATION,RA_OF_ASC_NODE,ARG_OF_PERICENTER,MEAN_ANOMALY,BSTAR,MEAN_MOTION_DOT,MEAN_MOTION_DDOT,TLE_LINE0,TLE_LINE1,TLE_LINE2,SEMIMAJOR_AXIS,PERIOD,APOGEE,PERIGEE,DECAYED
52987.0,STARLINK-4259,PAYLOAD,2022-08-04 22:00:00,15.49949529,0.0001486,53.2185,240.082,39.7141,263.906,-0.00087373,-0.00049839,0.0,0 STARLINK-4259,1 52987U 22076B   22216.91667824 -.00049839  00000-0 -87373-3 0  9990,2 52987  53.2185 240.0820 0001486  39.7141 263.9060 15.49949529  4958,6795.011,92.906,417.885,415.866,0.0
52987.0,STARLINK-4259,PAYLOAD,2022-08-05 14:00:01,15.49725522,0.0001665,53.2173,236.8917,36.9522,28.6558,-0.011238,-0.00589153,0.0,0 STARLINK-4259,1 52987U 22076B   22217.58335648 -.00589153  00000-0 -11238-1 0  9993,2 52987  53.2173 236.8917 0001665  36.9522  28.6558 15.49725522  1305,6795.665,92.92,418.662,416.399,0.0
52987.0,STARLINK-4259,PAYLOAD,2022-08-05 22:00:00,15.49344212,0.0001742,53.2173,235.2954,35.7484,90.2787,-0.022137,-0.0111349,0.0,0 STARLINK-4259,1 52987U 22076B   22217.91667824 -.01113490  00000-0 -22137-1 0  9992,2 52987  53.2173 235.2954 0001742  35.7484  90.2787 15.49344212  1301,6796.78,92.943,419.829,417.461,0.0
52987.0,STARLINK-4259,PAYLOAD,2022-08-06 05:12:14,15.49373946,0.0001169,53.2181,233.872,54.70399999999999,305.4079,-0.0041531,-0.002254,0.0,0 STARLINK-4259,1 52987U 22076B   22218.21683014 -.00225400  00000-0 -41531-2 0  9999,2 52987  53.2181 233.8720 0001169  54.7040 305.4079 15.49373946  5155,6796.693,92.941,419.353,417.764,0.0
52987.0,STARLINK-4259,PAYLOAD,2022-08-06 12:57:04,15.48852404,8.379999999999999e-05,53.2182,232.3336,119.8877,240.2215,-0.0047334,-0.00251325,0.0,0 STARLINK-4259,1 52987U 22076B   22218.53963548 -.00251325  00000-0 -47334-2 0  9999,2 52987  53.2182 232.3336 0000838 119.8877 240.2215 15.48852404  5200,6798.219,92.972,420.654,419.514,0.0
52987.0,STARLINK-4259,PAYLOAD,2022-08-06 22:00:00,15.46934245,0.0001419999999999,53.2173,230.5278,44.5124,257.9417,-0.024031,-0.01126855,0.0,0 STARLINK-4259,1 52987U 22076B   22218.91667824 -.01126855  00000-0 -24031-1 0  9997,2 52987  53.2173 230.5278 0001420  44.5124 257.9417 15.46934245  5269,6803.8380000000025,93.087,426.669,424.736,0.0
52987.0,STARLINK-4259,PAYLOAD,2022-08-07 04:27:23,15.47613699,9.7e-05,53.2184,229.2592,29.7761,330.3303,-0.0072533,-0.00363365,0.0,0 STARLINK-4259,1 52987U 22076B   22219.18568460 -.00363365  00000-0 -72533-2 0  9992,2 52987  53.2184 229.2592 0000970  29.7761 330.3303 15.47613699  5309,6801.846,93.046,424.371,423.051,0.0
52987.0,STARLINK-4259,PAYLOAD,2022-08-07 12:12:50,15.46929448,6.96e-05,53.218,227.7223,60.4676,299.6402,-0.0088951,-0.00431281,0.0,0 STARLINK-4259,1 52987U 22076B   22219.50891348 -.00431281  00000-0 -88951-2 0  9996,2 52987  53.2180 227.7223 0000696  60.4676 299.6402 15.46929448  5354,6803.852,93.088,426.19,425.24300000000005,0.0
52987.0,STARLINK-4259,PAYLOAD,2022-08-07 22:00:00,15.44526912,0.0001749,53.2173,225.7776,35.5622,74.6349,-0.026174,-0.0112926,0.0,0 STARLINK-4259,1 52987U 22076B   22219.91667824 -.01129260  00000-0 -26174-1 0  9991,2 52987  53.2173 225.7776 0001749  35.5622  74.6349 15.44526912  1300,6810.906,93.232,433.962,431.579,0.0
52987.0,STARLINK-4259,PAYLOAD,2022-08-08 03:44:28,15.45409416,7.809999999999999e-05,53.2181,224.6535,90.2612,269.8485,-0.010775,-0.00491811,0.0,0 STARLINK-4259,1 52987U 22076B   22220.15589117 -.00491811  00000-0 -10775-1 0  9990,2 52987  53.2181 224.6535 0000781  90.2612 269.8485 15.45409416  5451,6808.312,93.179,430.709,429.646,0.0
52987.0,STARLINK-4259,PAYLOAD,2022-08-08 14:00:01,15.429226500000002,0.0001668,53.2172,222.622,43.4599,173.8046,-0.027683,-0.01130682,0.0,0 STARLINK-4259,1 52987U 22076B   22220.58335648 -.01130682  00000-0 -27683-1 0  9998,2 52987  53.2172 222.6220 0001668  43.4599 173.8046 15.42922650  5521,6815.626,93.329,438.628,436.354,0.0
52987.0,STARLINK-4259,PAYLOAD,2022-08-08 22:00:00,15.42117072,0.0001614,53.2173,221.0446,41.5589,227.6984,-0.028329,-0.01126375,0.0,0 STARLINK-4259,1 52987U 22076B   22220.91667824 -.01126375  00000-0 -28329-1 0  9991,2 52987  53.2173 221.0446 0001614  41.5589 227.6984 15.42117072  1309,6817.999,93.378,440.965,438.764,0.0
52987.0,STARLINK-4259,PAYLOAD,2022-08-09 14:00:01,15.40513816,0.0001464,53.2173,217.9004,40.1664,330.3049,-0.029985,-0.01129527,0.0,0 STARLINK-4259,1 52987U 22076B   22221.58334491 -.01129527  00000-0 -29985-1 0  9997,2 52987  53.2173 217.9004 0001464  40.1664 330.3049 15.40513816  1303,6822.729,93.475,445.593,443.595,0.0
52987.0,STARLINK-4259,PAYLOAD,2022-08-09 22:00:00,15.39707854,0.0001708,53.2174,216.3288,34.3734,25.2609,-0.030673,-0.01125352,0.0,0 STARLINK-4259,1 52987U 22076B   22221.91667824 -.01125352  00000-0 -30673-1 0  9991,2 52987  53.2174 216.3288 0001708  34.3734  25.2609 15.39707854  1302,6825.11,93.524,448.14,445.809,0.0
52987.0,STARLINK-4259,PAYLOAD,2022-08-10 14:00:01,15.38103203,0.0001781,53.2173,213.196,40.1526,114.9073,-0.032359,-0.01125995,0.0,0 STARLINK-4259,1 52987U 22076B   22222.58334491 -.01125995  00000-0 -32359-1 0  9992,2 52987  53.2173 213.1960 0001781  40.1526 114.9073 15.38103203  1306,6829.856,93.622,452.937,450.504,0.0
52987.0,STARLINK-4259,PAYLOAD,2022-08-10 17:07:18,15.37787906,0.0001803,53.2174,212.5849,39.7971,115.8073,-0.032608,-0.01123257,0.0,0 STARLINK-4259,1 52987U 22076B   22222.71341435 -.01123257  00000-0 -32608-1 0  9999,2 52987  53.2174 212.5849 0001803  39.7971 115.8073 15.37787906  5850,6830.7890000000025,93.641,453.886,451.423,0.0
52987.0,STARLINK-4259,PAYLOAD,2022-08-10 22:00:00,15.37300537,0.000173,53.2174,211.6303,43.4276,157.8991,-0.033242,-0.01126672,0.0,0 STARLINK-4259,1 52987U 22076B   22222.91667824 -.01126672  00000-0 -33242-1 0  9993,2 52987  53.2174 211.6303 0001730  43.4276 157.8991 15.37300537  1306,6832.233,93.671,455.28,452.916,0.0
52987.0,STARLINK-4259,PAYLOAD,2022-08-11 14:00:01,15.35696147,0.0001551999999999,53.2172,208.5088,43.7081,247.2557,-0.035093,-0.01128822,0.0,0 STARLINK-4259,1 52987U 22076B   22223.58334491 -.01128822  00000-0 -35093-1 0  9993,2 52987  53.2172 208.5088 0001552  43.7081 247.2557 15.35696147  1303,6836.991,93.769,459.917,457.794,0.0
52987.0,STARLINK-4259,PAYLOAD,2022-08-11 22:00:00,15.34889542,0.0001474,53.2174,206.949,44.3609,289.9764,-0.0357899999999999,-0.01122313,0.0,0 STARLINK-4259,1 52987U 22076B   22223.91667824 -.01122313  00000-0 -35790-1 0  9992,2 52987  53.2174 206.9490 0001474  44.3609 289.9764 15.34889542  6030,6839.386,93.818,462.259,460.242,0.0
52987.0,STARLINK-4259,PAYLOAD,2022-08-12 14:00:01,15.332856,0.0001587,53.2172,203.8387,39.8696,18.3159,-0.037774,-0.0112512999999999,0.0,0 STARLINK-4259,1 52987U 22076B   22224.58334491 -.01125130  00000-0 -37774-1 0  9991,2 52987  53.2172 203.8387 0001587  39.8696  18.3159 15.33285600  1300,6844.154,93.916,467.106,464.9330000000001,0.0
52987.0,STARLINK-4259,PAYLOAD,2022-08-12 22:00:01,15.32481516,0.0001713,53.2175,202.2846,40.3282,58.3993,-0.038659,-0.01122762,0.0,0 STARLINK-4259,1 52987U 22076B   22224.91668981 -.01122762  00000-0 -38659-1 0  9993,2 52987  53.2175 202.2846 0001713  40.3282  58.3993 15.32481516  1308,6846.5480000000025,93.965,469.586,467.241,0.0
52987.0,STARLINK-4259,PAYLOAD,2022-08-13 14:00:01,15.30876669,0.0001759,53.2173,199.1857,43.4167,133.3065,-0.040717,-0.01124187,0.0,0 STARLINK-4259,1 52987U 22076B   22225.58334491 -.01124187  00000-0 -40717-1 0  9994,2 52987  53.2173 199.1857 0001759  43.4167 133.3065 15.30876669  1307,6851.331999999999,94.064,474.403,471.992,0.0
52987.0,STARLINK-4259,PAYLOAD,2022-08-13 22:00:00,15.30073084,0.0001675,53.2174,197.6376,48.6105,165.696,-0.041667,-0.01122085,0.0,0 STARLINK-4259,1 52987U 22076B   22225.91667824 -.01122085  00000-0 -41667-1 0  9990,2 52987  53.2174 197.6376 0001675  48.6105 165.6960 15.30073084  1305,6853.731,94.113,476.744,474.448,0.0
52987.0,STARLINK-4259,PAYLOAD,2022-08-14 14:00:01,15.28469249,0.0001623,53.2173,194.5498,42.3156,244.2615,-0.04397,-0.01126276,0.0,0 STARLINK-4259,1 52987U 22076B   22226.58334491 -.01126276  00000-0 -43970-1 0  9990,2 52987  53.2173 194.5498 0001623  42.3156 244.2615 15.28469249  1305,6858.525,94.212,481.503,479.277,0.0
52987.0,STARLINK-4259,PAYLOAD,2022-08-14 22:00:00,15.27663175,0.0001595,53.2175,193.0074,41.8762,279.3906,-0.0447889999999999,-0.0111976,0.0,0 STARLINK-4259,1 52987U 22076B   22226.91667824 -.01119760  00000-0 -44789-1 0  9995,2 52987  53.2175 193.0074 0001595  41.8762 279.3906 15.27663175  1301,6860.937,94.262,483.896,481.708,0.0
52987.0,STARLINK-4259,PAYLOAD,2022-08-15 14:00:01,15.26059472,0.0001631999999999,53.2174,189.9308,37.4385,350.3101,-0.047243,-0.01124245,0.0,0 STARLINK-4259,1 52987U 22076B   22227.58334491 -.01124245  00000-0 -47243-1 0  9992,2 52987  53.2174 189.9308 0001632  37.4385 350.3101 15.26059472  1303,6865.743,94.361,488.728,486.487,0.0
52987.0,STARLINK-4259,PAYLOAD,2022-08-15 16:00:00,15.25856208,0.0001797,53.2175,189.5463,38.6364,87.1523,-0.04733,-0.0111983999999999,0.0,0 STARLINK-4259,1 52987U 22076B   22227.66667824 -.01119840  00000-0 -47330-1 0  9992,2 52987  53.2175 189.5463 0001797  38.6364  87.1523 15.25856208  6606,6866.353,94.373,489.451,486.984,0.0
52987.0,STARLINK-4259,PAYLOAD,2022-08-15 22:00:00,15.25253964,0.0001709,53.2174,188.3942,38.4641,21.0795,-0.048167,-0.01119086,0.0,0 STARLINK-4259,1 52987U 22076B   22227.91667824 -.01119086  00000-0 -48167-1 0  9991,2 52987  53.2174 188.3942 0001709  38.4641  21.0795 15.25253964  1303,6868.16,94.411,491.199,488.851,0.0
52987.0,STARLINK-4259,PAYLOAD,2022-08-16 14:00:01,15.23649598,0.0001743,53.2174,185.3289,41.6996,78.53699999999998,-0.050676,-0.01136455,0.0,0 STARLINK-4259,1 52987U 22076B   22228.58334491 -.01136455  00000-0 -50676-1 0  9993,2 52987  53.2174 185.3289 0001743  41.6996  78.5370 15.23649598  1307,6872.98,94.51,496.043,493.647,0.0
